{"type":"FeatureCollection","features":[{"type":"Feature","geometry":{"type":"Point","coordinates":[-120.113243,39.055185]},"properties":{"OBJECTID":8054,"feature_id":260516,"feature_name":"dukMéʔem wáťa","feature_class":"Stream","state_name":"California","state_numeric":"06","county_name":"El Dorado","county_numeric":"017","map_name":"Meeks Bay","date_created":"1981-01-19T00:00:00Z","date_edited":"2026-02-13T15:12:15Z","bgn_type":2,"bgn_authority":1,"bgn_date":"2026-02-12T00:00:00Z","prim_lat_dms":"390319N","prim_long_dms":"1200648W","prim_lat_dec":39.0551853,"prim_long_dec":-120.113243,"source_lat_dms":"385849N","source_lat_dec":38.9801854,"source_long_dec":-120.1640766,"rop_renaming_former_name":"General Creek","rop_renaming_park_uinit":"Ed Z'Berg Sugar Pine Point SP","rop_renaming_park_district":"Sierra","rop_renaming_county":"El Dorado","rop_renaming_new_name":"dukMéʔem wáťa","rop_renaming_meaning":"Wave Creek","rop_renaming_tribal_partner":"Washoe Tribe of Nevada & California","rop_id":"N0009","image_link":"https://raw.githubusercontent.com/mrubip222-cell/ROP/refs/heads/main/assets/images/EZSPPSP/Beach.jpeg","alt-text":"Pictured is the Ed Z'berg Sugar Pine Point State Park Beach's wooden pier and hut in the lake with a scenic background of Mountains.","title":"Ed Z'berg SP Beach","image_caption":"A view of the state park's pier at the beach.","description":"A scenic picture of the Ed Z'berg Sugar Pine Point State Park Beach's wooden pier and hut with a lakeside view."}}]}
