{"type":"FeatureCollection","features":[{"type":"Feature","geometry":{"type":"Point","coordinates":[-120.114801,39.054643]},"properties":{"site_name":"dukMéʔem wáťa","feature_class":"Stream","state_name":"California","state_numeric":"06","county_name":"El Dorado","county_numeric":"017","rop_renaming_former_name":"General Creek","rop_renaming_park_uinit":"Ed Z'Berg Sugar Pine Point SP","rop_renaming_park_district":"Sierra","rop_renaming_county":"El Dorado","rop_renaming_new_name":"dukMéʔem wáťa","rop_renaming_meaning":"Wave Creek","rop_renaming_tribal_partner":"Washoe Tribe of Nevada & California","rop_id":"N0009","image_link":"https://raw.githubusercontent.com/mrubip222-cell/ROP/refs/heads/main/assets/images/dukM%C3%A9emw%C3%A1t'a.jpeg","alt-text":"Pictured is the Ed Z'berg Sugar Pine Point State Park's dukMéʔem wáťa, \"Wave Creek\" with a scenic view of trees alongside the creek.","title":"dukMéʔem wáťa","image_caption":"A view of the state park's dukMéʔem wáťa creek.","site_description":"Renamed in 2024, Ed Z'berg Sugar Pine Point State Park's dukMéʔem wáťa is the park's Creek that extends 9.3 miles across the State Park. Formerly known as \"General Creek,\" dukMéʔem wáťa means \"Wave Creek\" in the Washoe language.","image":"assets/images/dukMéemwát'a.jpeg"}},{"type":"Feature","geometry":{"type":"Point","coordinates":[-120.126488,39.05424]},"properties":{"site_name":"dukMéʔem wáťa Campground","feature_class":"Location","state_name":"California","state_numeric":"06","county_name":"El Dorado","county_numeric":"017","rop_renaming_former_name":"General Creek Campground","rop_renaming_park_uinit":"Ed Z'Berg Sugar Pine Point SP","rop_renaming_park_district":"Sierra","rop_renaming_county":"El Dorado","rop_renaming_new_name":"dukMéʔem wáťa Campground","rop_renaming_meaning":"Wave Creek campground","rop_renaming_tribal_partner":"Washoe Tribe of Nevada & California","rop_id":"N0009","image_link":"https://raw.githubusercontent.com/mrubip222-cell/ROP/refs/heads/main/assets/images/dukMe%CC%81%CA%94em%20wa%CC%81t%CC%8Ca%20campground.jpg","alt-text":"Pictured is the Ed Z'berg Sugar Pine Point State Park's dukMéʔem wáťa Campground with some of its ammenities and picnic tables pictured.","title":"dukMéʔem wáťa Campground","image_caption":"A view of the state park's dukMéʔem wáťa campground and some of its picnic tables.","site_description":"Renamed in 2024, Ed Z'berg Sugar Pine Point State Park's dukMéʔem wáťa Campground offers visitors with a great camping location near the creek and the Loop Trail.","image":"assets/images/dukMéʔem wáťa campground.jpg"}},{"type":"Feature","properties":{"site_name":"dukMéʔem wáťa Loop Trail","feature_class":"Trail","state_name":"California","state_numeric":"06","county_name":"El Dorado","county_numeric":"017","rop_renaming_former_name":"General Creek Campground","rop_renaming_park_uinit":"Ed Z'Berg Sugar Pine Point SP","rop_renaming_park_district":"Sierra","rop_renaming_county":"El Dorado","rop_renaming_new_name":"dukMéʔem wáťa Loop Trail","rop_renaming_meaning":"Wave Creek Loop Trail","rop_renaming_tribal_partner":"Washoe Tribe of Nevada & California","rop_id":"N0009","image_link":"https://raw.githubusercontent.com/mrubip222-cell/ROP/refs/heads/main/assets/images/dukMe%CC%81%CA%94em%20wa%CC%81t%CC%8Ca%20Loop%20Trail.jpg","alt-text":"Pictured is the view along Ed Z'berg Sugar Pine Point State Park's dukMéʔem wáťa Loop Trail, towering trees and tall grasses and shrubs.","title":"dukMéʔem wáťa Loop Trail","image_caption":"A view along the state park's dukMéʔem wáťa Loop Trail.","site_description":"Renamed in 2024, Ed Z'berg Sugar Pine Point State Park's dukMéʔem wáťa Loop Trail is approximately 6.5 miles long, taking hikers an average 2.5 - 2.5 hours to complete.","image":"assets/images/dukMéʔem wáťa Loop Trail.jpg"},"geometry":{"type":"Point","coordinates":[-120.128463,39.052783]}}]}
